{"type":"FeatureCollection", "features": [
{"type":"Feature","geometry":{"type":"Polygon","coordinates":[[[92.26477776301218,23.726718093938228],[92.40240466434379,23.266175372433676],[92.50944780982395,22.741019194479232],[92.85504425094558,22.06326527895164],[93.1608818094603,22.180119402318468],[93.09665592217222,22.786386089433414],[93.12265211464597,23.006346792241555],[93.1960531286895,23.055837950373387],[93.3581470347023,23.330788828883566],[93.39025997834635,23.497134110382227],[93.25263307701472,24.02091553394412],[93.2067574432375,24.047035867402585],[93.00949221799551,24.412720535821126],[92.89633232134507,24.39072446554031],[92.7617637955986,24.51307760647734],[92.53238562671255,24.17763753469492],[92.42228410564725,24.250499517500117],[92.29536151886364,24.245000499929915],[92.26477776301218,23.726718093938228]]]},"properties":{"name":"Mizoram"}},
{"type":"Feature","geometry":{"type":"Polygon","coordinates":[[[79.84012694835161,11.956070984917439],[80.0083376055347,12.254392688100985],[80.24994927676134,12.857909866430829],[80.30041247391627,13.142484025688866],[80.26829953027223,13.56453362420199],[80.03739217359362,13.538413290743524],[79.28350259185483,13.123237464193153],[79.22845183132218,13.157606324006924],[78.60301402415956,12.84416232250532],[78.41186555008787,12.626951128482279],[78.23142139056418,12.760302304559715],[77.86594550813909,12.870282655963788],[77.8307741889099,12.866158392786133],[77.60139602002386,12.668193760258806],[77.4714150576551,12.243394652960578],[77.74666886031835,12.15541037183732],[77.67632622185997,11.951946721739787],[76.84750643828507,11.594510579676554],[76.41780466857188,11.671496825659403],[76.23430213346305,11.52714761444156],[76.44227167325306,11.201330823406998],[76.7068211613683,11.239823946398422],[76.8337437481519,10.339359819277584],[76.8918528842697,10.259624064509632],[77.05088841469735,10.262373573294735],[77.09064729730427,10.314614240211668],[77.28791252254626,10.232128976658615],[77.2680330812428,10.122148625254543],[77.40260160698928,9.525505218887453],[77.33990490749376,9.419649130661034],[77.28179577137597,9.298670744116555],[77.20380719395472,9.070461514953106],[77.25579957890221,8.87937065438853],[77.19921963057699,8.770765057377009],[77.26956226903538,8.578299442419883],[77.09829323626714,8.292350528769298],[77.58916251768326,8.139752791196148],[77.9699302780341,8.334967914938375],[78.38434016982154,9.09383233962647],[79.06482873751679,9.298670744116555],[79.1168211224643,9.849947255529464],[79.2269226435296,10.137270923572602],[79.47159269034137,10.315988994604218],[79.87223989199566,10.359981135165848],[79.84930207510706,10.827397628633154],[79.72390867611603,10.92912945368192],[79.7483756807972,10.996492418916914],[79.85083126289963,10.985494383776505],[79.81260156808528,11.424041035000243],[79.80801400470757,11.844715879120816],[79.68567898130168,11.880459493327141],[79.84012694835161,11.956070984917439]]]},"properties":{"name":"Tamil Nadu"}},
{"type":"Feature","geometry":{"type":"Polygon","coordinates":[[[74.14696079660007,21.950535418762467],[74.43291891381133,22.03027117353042],[74.77545697934782,21.61509534698005],[75.21127550023131,21.411631696882516],[75.60886432630045,21.389635626601702],[75.98657371106613,21.36901431071344],[76.38263334934268,21.076191625100094],[76.66247471538367,21.281030029590177],[76.78175136320439,21.55873041688546],[77.06159272924538,21.712702908851163],[77.48823612337341,21.37451332828364],[78.34305209942205,21.58897501352158],[78.4332741791839,21.49686646922067],[79.23456858249247,21.718201926421365],[79.50982238515572,21.595848785484336],[79.53887695321461,21.540858609782298],[79.91811552577286,21.52436155707169],[80.66130079296364,21.333270696507114],[80.84633251586504,21.835056049788193],[81.04512692889962,22.240608595590707],[81.19345814477926,22.490813895034968],[81.4748286986128,22.489439140642418],[81.72867387218002,22.669531966066586],[81.73173224776517,22.67640573802934],[82.12320432266401,23.10395435411267],[81.98557742133238,23.414648846829174],[81.60328047318899,23.88481484908158],[82.20883883904813,23.85319549805291],[82.49785533184455,23.784457778425363],[82.69359136929397,23.919183708895353],[82.81286801711471,23.96180109506443],[82.52385152431829,24.6766733791909],[82.2975317310174,24.606560905170802],[82.09414975460511,24.81689832723109],[81.54058377369347,25.18808201321983],[81.12005713073572,24.903507853961795],[80.71482236570372,25.0657288722828],[80.4777982578548,24.97636983676699],[80.2637119668945,25.024486240506274],[80.10467643646685,25.350303031540836],[79.84012694835161,25.09872297770402],[79.28044421626967,25.32418269808237],[79.32326147446173,25.149588890228404],[78.87979701461539,25.15783741658371],[78.55866757817493,25.21282759228575],[78.63971453118134,25.071227889853006],[78.98531097230297,24.441590378064692],[78.99142772347327,24.416844798998778],[78.26812189758594,24.449838904419998],[78.19013332016469,24.841643906297005],[78.37363585527352,25.09872297770402],[78.44703686931706,25.12209380237739],[78.39045692099184,25.205953820322993],[78.45162443269479,25.57163848874153],[78.88591376578569,25.912577578094155],[78.93790615073318,25.95244545547813],[79.13517137597518,26.4404832648337],[78.78039980809811,26.769049564653365],[78.54490488804177,26.76355054708316],[78.22224626380874,26.832288266710705],[77.37507622672297,26.3648717732434],[77.11970186536317,26.213648790062802],[76.85209400166279,26.032181210246083],[76.54625644314807,25.838340840896407],[76.59366126471785,25.408042716027975],[77.0830013583414,25.33655548761533],[77.31237952722745,25.080851170600862],[76.87656100634396,25.040983293216886],[76.84444806269991,24.43609136049449],[76.88114856972169,24.130895885348192],[76.21289350436702,24.20925688572359],[75.68991127930684,23.74733940982649],[75.46206229821338,23.917808954502803],[75.92081863598546,24.54332220311346],[75.78472092244641,24.761908151529052],[75.54922600239007,24.702793712649363],[75.35196077714808,25.01898722293607],[75.19139605892785,25.03685903003923],[74.69746840192657,24.48283300984122],[74.90849631730173,24.212006394508695],[74.94060926094578,23.76521121692965],[74.77239860376268,23.542501005336405],[74.73416890894833,23.220808477479498],[74.31975901716089,23.059962213551042],[74.37939734107127,22.63516310625281],[74.05826790463081,22.549928333914657],[74.14696079660007,21.950535418762467]]]},"properties":{"name":"Madhya Pradesh"}},
{"type":"Feature","geometry":{"type":"Polygon","coordinates":[[[74.14696079660007,21.950535418762467],[73.93899125681007,21.87354917277962],[73.98180851500213,21.521612048286585],[73.80748110664874,21.008828659865102],[73.84876917704823,20.999205379117246],[73.84876917704823,20.997830624724692],[73.88852805965513,20.9332171682748],[73.94204963239521,20.83973386958134],[73.47411816786769,20.720130237429416],[73.40683390499444,20.62389742995085],[73.24932756235937,20.122112076669772],[73.21109786754502,20.120737322277222],[72.96184025735553,20.208721603400477],[72.77527934666155,20.13173535741763],[72.79821716355015,19.304133213101988],[72.78445447341699,19.264265335718015],[72.8364468583645,18.864211807485702],[73.04441639815451,17.981619487468024],[73.34719558108408,16.529878848934278],[73.68514608324284,15.728397038077103],[74.11790622854117,15.651410792094254],[74.20965749609559,15.780637704994037],[74.695939214134,16.715470691928648],[75.34125646260006,16.956052710625055],[75.60427676292272,17.305240326332985],[76.07526660303539,17.33685967736165],[76.4285089831199,17.643429906900504],[76.68541253227227,17.681923029891927],[76.74046329280492,17.89913422391497],[77.26497470565766,18.422915647476863],[77.55093282286893,18.292313980184527],[77.73902292135548,18.5562668235543],[77.94852164893805,18.84359049159744],[78.19319169574985,19.316506002634945],[78.30635159240029,19.911774654609488],[78.84156731980104,19.761926425821436],[78.93637696294061,19.5502142493686],[79.806484816915,19.579084091612167],[79.92881984032088,19.158409247491594],[79.91352796239515,18.825718684494277],[80.2759454692351,18.71986259626786],[80.33252541756032,19.144661703566086],[80.85244926703534,19.364622406374227],[80.67200510751165,19.702811986941747],[80.54508252072804,20.10011600638896],[80.56190358644636,20.823236816870732],[80.66130079296364,21.333270696507114],[79.91811552577286,21.52436155707169],[79.53887695321461,21.540858609782298],[79.50982238515572,21.595848785484336],[79.23456858249247,21.718201926421365],[78.4332741791839,21.49686646922067],[78.34305209942205,21.58897501352158],[77.48823612337341,21.37451332828364],[77.06159272924538,21.712702908851163],[76.78175136320439,21.55873041688546],[76.66247471538367,21.281030029590177],[76.38263334934268,21.076191625100094],[75.98657371106613,21.36901431071344],[75.60886432630045,21.389635626601702],[75.21127550023131,21.411631696882516],[74.77545697934782,21.61509534698005],[74.43291891381133,22.03027117353042],[74.14696079660007,21.950535418762467]]]},"properties":{"name":"Maharashtra"}},
{"type":"Feature","geometry":{"type":"Polygon","coordinates":[[[80.66130079296364,21.333270696507114],[80.56190358644636,20.823236816870732],[80.54508252072804,20.10011600638896],[80.67200510751165,19.702811986941747],[80.85244926703534,19.364622406374227],[80.33252541756032,19.144661703566086],[80.2759454692351,18.71986259626786],[80.37228430016722,18.611256999256334],[80.7561104361032,18.169960839247498],[80.97937185381895,18.165836576069843],[81.08488581150652,17.797402398866204],[81.39684012119154,17.818023714754467],[81.89994290494826,18.66074815738817],[82.09109137901996,18.737734403371018],[82.20578046346299,19.12129087889272],[82.02839467952444,19.507596863199524],[81.87547590026709,20.051999602649676],[82.01769036497643,20.049250093864575],[82.59419416277669,19.775673969746947],[82.71805837397514,19.988760900592336],[82.39845812532727,20.05612386582733],[82.33881980141689,20.874102729395112],[82.63854060876132,21.088564414633055],[83.26856597930164,21.37726283706874],[83.48723983363966,21.643965189223614],[83.59122460353467,21.825432769040333],[83.80225251890982,22.29422401690019],[84.01175124649241,22.527932263633843],[84.29312180032596,22.772638545507903],[84.03774743896616,23.171317319347665],[84.07444794598793,23.33353833766867],[84.01633880987013,23.634609549637318],[83.32973349100459,24.102026043104622],[82.81286801711471,23.96180109506443],[82.69359136929397,23.919183708895353],[82.49785533184455,23.784457778425363],[82.20883883904813,23.85319549805291],[81.60328047318899,23.88481484908158],[81.98557742133238,23.414648846829174],[82.12320432266401,23.10395435411267],[81.73173224776517,22.67640573802934],[81.72867387218002,22.669531966066586],[81.4748286986128,22.489439140642418],[81.19345814477926,22.490813895034968],[81.04512692889962,22.240608595590707],[80.84633251586504,21.835056049788193],[80.66130079296364,21.333270696507114]]]},"properties":{"name":"Chhattisgarh"}},
{"type":"Feature","geometry":{"type":"Polygon","coordinates":[[[74.31975901716089,23.059962213551042],[73.98180851500213,23.337662600846322],[73.95887069811351,23.3802799870154],[73.62703694712505,23.449017706642945],[73.36860421018011,23.814702375061483],[73.37777933693555,23.90406141057729],[73.00159913996245,24.480083501056118],[72.95887932517748,24.3607520625455],[72.95878188177038,24.36047986890419],[72.95834978197382,24.3604927318788],[72.87531424942908,24.362964577400437],[72.81614394661773,24.364725990178023],[72.68332351347208,24.46363285464714],[72.68204227867083,24.46392350644028],[72.56539853358129,24.490384474903184],[72.52103497171726,24.500448476281786],[72.51909731245334,24.497297706124236],[72.50020986581414,24.417622347549955],[72.50005787366794,24.416981179424894],[72.49989802475449,24.416972575963342],[72.43185886624784,24.48514924393465],[72.40265269877902,24.514414438066076],[72.35382857336779,24.563337238703372],[72.35358902785798,24.563577268342843],[72.34068093691786,24.610926427316382],[72.33487326240035,24.632681238629267],[72.3348371658639,24.63267889980908],[72.28465597866845,24.62942748609274],[72.25831854619116,24.627720992205376],[72.25101456591234,24.62724774191],[72.19632485248738,24.623704205092512],[72.16357056925297,24.623007932288964],[72.14147694403766,24.641735318705038],[72.08671890297352,24.688150290643886],[72.05812323191954,24.71238905528465],[71.99541716126785,24.694461301285894],[71.99230841664279,24.693570653594442],[71.91534640834695,24.672665698305845],[71.86502409385695,24.67430088770692],[71.79212816790482,24.676669591267288],[71.77033936215668,24.67076264090881],[71.73285302211572,24.660538870421554],[71.65727334839815,24.639925782114034],[71.60818276663083,24.676680281348105],[71.60738114013292,24.67669723828594],[71.58010133262442,24.677274292563993],[71.54962063345098,24.6779190558326],[71.5384520056207,24.678155307663463],[71.28824968119207,24.61627698803492],[71.28737962448743,24.61618418591866],[71.18798241797015,24.65055304573243],[71.11152302834147,24.675298624798344],[70.02579969561421,24.170763762732168],[68.76421976674098,24.2958664124543],[68.14184033516352,23.601615444216094],[69.13122483695865,22.87437037055667],[70.68946719759116,23.117701898038177],[70.49678953572688,22.933484809436358],[69.75360426853611,22.41795191222977],[68.9660725553607,22.23373482362795],[69.39577432507387,21.888671471097677],[69.98145324962957,21.227414608280696],[70.2398859865745,20.99233160715449],[70.92037455426977,20.74212630771023],[70.99989231948359,20.74212630771023],[71.20633267148104,20.79574172901971],[71.6773225115937,20.99645587033214],[72.11314103247717,21.198544766037124],[72.2446511826385,21.994527559324098],[72.37616133279984,22.314845332788455],[72.9465483794298,22.29284926250764],[72.86703061421596,22.21448826213224],[72.50920067075374,21.94366164679971],[72.73552046405463,21.474870398939856],[72.75081234198038,21.062444081174586],[72.85479711187537,20.750374834065532],[72.88691005551942,20.461676411629846],[72.82880091940163,20.368193112936382],[72.77527934666155,20.13173535741763],[72.96184025735553,20.208721603400477],[73.16675142156039,20.28845735816843],[73.21109786754502,20.120737322277222],[73.24932756235937,20.122112076669772],[73.40683390499444,20.62389742995085],[73.47411816786769,20.720130237429416],[73.94204963239521,20.83973386958134],[73.88852805965513,20.9332171682748],[73.84876917704823,20.997830624724692],[73.84876917704823,20.999205379117246],[73.80748110664874,21.008828659865102],[73.98180851500213,21.521612048286585],[73.93899125681007,21.87354917277962],[74.14696079660007,21.950535418762467],[74.05826790463081,22.549928333914657],[74.37939734107127,22.63516310625281],[74.31975901716089,23.059962213551042]]]},"properties":{"name":"Gujarat"}},
{"type":"Feature","geometry":{"type":"Polygon","coordinates":[[[81.39684012119154,17.818023714754467],[81.9794606701621,18.013238838496697],[82.42751269338616,18.486154349534203],[83.07741750522995,18.40366908598115],[83.34808374451546,19.018184299451402],[83.75637688513262,18.91095345683243],[83.79307739215439,19.018184299451402],[84.42310276269471,18.949446579823856],[84.70141494094311,19.118541370107618],[85.17240478105577,19.467728985815548],[86.36975882264092,19.98188712862958],[86.7765227754655,20.33519900751516],[86.80557734352439,20.735252535747474],[86.85909891626447,21.213667064355185],[87.48453672342708,21.61509534698005],[87.44171946523501,21.767693084553198],[87.24292505220045,21.964282962687975],[87.10071058749111,21.86392589203176],[86.72758876610314,22.21586301652479],[86.06697963971135,22.556802105877413],[85.96299486981634,22.485314877464766],[85.68315350377537,22.05776626138144],[85.23815985613645,22.009649857642156],[85.06994919895335,22.490813895034968],[84.01175124649241,22.527932263633843],[83.80225251890982,22.29422401690019],[83.59122460353467,21.825432769040333],[83.48723983363966,21.643965189223614],[83.26856597930164,21.37726283706874],[82.63854060876132,21.088564414633055],[82.33881980141689,20.874102729395112],[82.39845812532727,20.05612386582733],[82.71805837397514,19.988760900592336],[82.59419416277669,19.775673969746947],[82.01769036497643,20.049250093864575],[81.87547590026709,20.051999602649676],[82.02839467952444,19.507596863199524],[82.20578046346299,19.12129087889272],[82.09109137901996,18.737734403371018],[81.89994290494826,18.66074815738817],[81.39684012119154,17.818023714754467]]]},"properties":{"name":"Odisha"}},
{"type":"Feature","geometry":{"type":"Polygon","coordinates":[[[80.26829953027223,13.56453362420199],[80.04045054917876,15.009400490772984],[80.41815993394444,15.7985095120972],[80.83104063793931,15.70640096779629],[81.55281727603405,16.347036514725005],[81.71491118204686,16.311292900518684],[82.3143527967357,16.558748691177847],[82.54220177782918,17.248875396238397],[83.51935277728371,17.950000136439353],[83.66309642978564,18.07922704933914],[84.12796951872801,18.31293529607279],[84.70141494094311,19.118541370107618],[84.42310276269471,18.949446579823856],[83.79307739215439,19.018184299451402],[83.75637688513262,18.91095345683243],[83.34808374451546,19.018184299451402],[83.07741750522995,18.40366908598115],[82.42751269338616,18.486154349534203],[81.9794606701621,18.013238838496697],[81.39684012119154,17.818023714754467],[81.08488581150652,17.797402398866204],[80.91055840315315,17.6379308893303],[80.94114215900461,17.218630799602277],[80.87691627171652,17.07015732520678],[80.05574242710449,16.971175008943113],[80.07256349282281,16.817202516977414],[79.67956223013138,16.693474621647834],[79.21010157781129,16.356659795472865],[79.21468914118901,16.226058128180526],[78.92261427280745,16.12295154873921],[78.25588839524536,16.008846934157486],[78.24824245628248,15.971728565558612],[77.51423231584715,15.927736424996983],[77.02642141001618,15.837002635088623],[77.15640237238493,15.14000215806532],[76.76034273410838,14.988779174884721],[77.00501278092014,14.235413767766829],[77.00348359312757,14.198295399167954],[76.94843283259492,14.095188819726637],[77.45612317972936,13.682762501961367],[78.1259074328766,13.787243835795236],[78.19625007133499,13.568657887379644],[78.58619295844126,13.275835201766302],[78.23142139056418,12.760302304559715],[78.41186555008787,12.626951128482279],[78.60301402415956,12.84416232250532],[79.22845183132218,13.157606324006924],[79.28350259185483,13.123237464193153],[80.03739217359362,13.538413290743524],[80.26829953027223,13.56453362420199]]]},"properties":{"name":"Andhra Pradesh"}},
{"type":"Feature","geometry":{"type":"Polygon","coordinates":[[[78.23142139056418,12.760302304559715],[78.58619295844126,13.275835201766302],[78.19625007133499,13.568657887379644],[78.1259074328766,13.787243835795236],[77.45612317972936,13.682762501961367],[76.94843283259492,14.095188819726637],[77.00348359312757,14.198295399167954],[77.00501278092014,14.235413767766829],[76.76034273410838,14.988779174884721],[77.15640237238493,15.14000215806532],[77.02642141001618,15.837002635088623],[77.51423231584715,15.927736424996983],[77.59375008106099,16.342912251547354],[77.28791252254626,16.4089004623898],[77.4591815553145,16.88456548221241],[77.46682749427738,16.954677956232505],[77.6855013486154,17.51145348521562],[77.44388967738877,17.584315468020815],[77.60139602002386,18.27581692747392],[77.55093282286893,18.292313980184527],[77.26497470565766,18.422915647476863],[76.74046329280492,17.89913422391497],[76.68541253227227,17.681923029891927],[76.4285089831199,17.643429906900504],[76.07526660303539,17.33685967736165],[75.60427676292272,17.305240326332985],[75.34125646260006,16.956052710625055],[74.695939214134,16.715470691928648],[74.20965749609559,15.780637704994037],[74.11790622854117,15.651410792094254],[74.2784709467614,15.522183879194468],[74.25094556649508,15.491939282558349],[74.08579328489714,14.900794893761462],[74.58277931748356,13.926094029442876],[74.77698616714041,13.07099679727622],[74.86873743469482,12.758927550167165],[75.41618666443617,12.499098969975044],[75.4146574766436,12.290136302307308],[75.93611051391119,11.94094868659938],[76.11349629784974,11.979441809590806],[76.41321710519416,11.758106352390111],[76.41780466857188,11.671496825659403],[76.84750643828507,11.594510579676554],[77.67632622185997,11.951946721739787],[77.74666886031835,12.15541037183732],[77.4714150576551,12.243394652960578],[77.60139602002386,12.668193760258806],[77.8307741889099,12.866158392786133],[77.86594550813909,12.870282655963788],[78.23142139056418,12.760302304559715]]]},"properties":{"name":"Karnataka"}},
{"type":"Feature","geometry":{"type":"Polygon","coordinates":[[[73.68514608324284,15.728397038077103],[73.93440369343234,15.432824843678661],[74.08579328489714,14.900794893761462],[74.25094556649508,15.491939282558349],[74.2784709467614,15.522183879194468],[74.11790622854117,15.651410792094254],[73.68514608324284,15.728397038077103]]]},"properties":{"name":"Goa"}},
{"type":"Feature","geometry":{"type":"Polygon","coordinates":[[[76.41780466857188,11.671496825659403],[76.41321710519416,11.758106352390111],[76.11349629784974,11.979441809590806],[75.93611051391119,11.94094868659938],[75.4146574766436,12.290136302307308],[75.41618666443617,12.499098969975044],[74.86873743469482,12.758927550167165],[75.1653998664541,12.089422160994877],[75.5538135657678,11.701741422295523],[75.8260089928459,11.122969823031596],[75.95751914300723,10.685797926200411],[76.21442269215959,10.193635853667189],[76.28017776724026,9.789458062257225],[76.47897218027482,9.12270218187004],[76.68235415668711,8.776264074947214],[77.09829323626714,8.292350528769298],[77.26956226903538,8.578299442419883],[77.19921963057699,8.770765057377009],[77.25579957890221,8.87937065438853],[77.20380719395472,9.070461514953106],[77.28179577137597,9.298670744116555],[77.33990490749376,9.419649130661034],[77.40260160698928,9.525505218887453],[77.2680330812428,10.122148625254543],[77.28791252254626,10.232128976658615],[77.09064729730427,10.314614240211668],[77.05088841469735,10.262373573294735],[76.8918528842697,10.259624064509632],[76.8337437481519,10.339359819277584],[76.7068211613683,11.239823946398422],[76.44227167325306,11.201330823406998],[76.23430213346305,11.52714761444156],[76.41780466857188,11.671496825659403]]]},"properties":{"name":"Kerala"}},
{"type":"Feature","geometry":{"type":"Polygon","coordinates":[[[77.55093282286893,18.292313980184527],[77.60139602002386,18.27581692747392],[77.44388967738877,17.584315468020815],[77.6855013486154,17.51145348521562],[77.46682749427738,16.954677956232505],[77.4591815553145,16.88456548221241],[77.28791252254626,16.4089004623898],[77.59375008106099,16.342912251547354],[77.51423231584715,15.927736424996983],[78.24824245628248,15.971728565558612],[78.25588839524536,16.008846934157486],[78.92261427280745,16.12295154873921],[79.21468914118901,16.226058128180526],[79.21010157781129,16.356659795472865],[79.67956223013138,16.693474621647834],[80.07256349282281,16.817202516977414],[80.05574242710449,16.971175008943113],[80.87691627171652,17.07015732520678],[80.94114215900461,17.218630799602277],[80.91055840315315,17.6379308893303],[81.08488581150652,17.797402398866204],[80.97937185381895,18.165836576069843],[80.7561104361032,18.169960839247498],[80.37228430016722,18.611256999256334],[80.2759454692351,18.71986259626786],[79.91352796239515,18.825718684494277],[79.92881984032088,19.158409247491594],[79.806484816915,19.579084091612167],[78.93637696294061,19.5502142493686],[78.84156731980104,19.761926425821436],[78.30635159240029,19.911774654609488],[78.19319169574985,19.316506002634945],[77.94852164893805,18.84359049159744],[77.73902292135548,18.5562668235543],[77.55093282286893,18.292313980184527]]]},"properties":{"name":"Telangana"}},
{"type":"Feature","geometry":{"type":"Polygon","coordinates":[[[87.48453672342708,21.61509534698005],[87.78884509414922,21.698955364925652],[87.95552656353975,21.830931786610538],[88.18643392021836,22.104507910728167],[87.99834382173181,22.24473285876836],[88.08244915032336,22.26122991147897],[88.18337554463321,22.18699317428122],[88.20784254931439,22.026146910352765],[88.14514584981887,21.95465968194012],[88.26748087322477,21.72782520716922],[89.05501258640017,22.12787873540153],[88.70941614527854,23.231806512619904],[88.70024101852309,24.096527025534417],[88.0273983897907,24.690420923116406],[88.43569153040787,25.200454802752787],[88.90973974610569,25.179833486864524],[88.44639584495587,25.595009313414895],[88.10079940383424,25.8300923145411],[88.33323594830543,26.496848194928287],[88.40052021117867,26.64394691493123],[88.75987934243346,26.329128159037076],[89.3486166425743,26.01018513996527],[89.72938440292513,26.17103140389372],[89.84254429957558,26.38274358034656],[89.83489836061271,26.414362931375234],[89.85171942633102,26.69756233624072],[89.09018390562936,26.84053679306601],[88.86845167570618,26.96563944278814],[88.72164964761913,27.138858496249554],[88.53203036133999,27.17597686484843],[88.42498721585984,27.071495531014563],[88.28124356335792,27.131984724286802],[88.03810270433873,27.219969005410057],[88.10997453058968,26.54771410745267],[88.23995549295844,26.45835507193686],[87.85001260585217,26.039054982208835],[87.82707478896356,25.89058150781334],[88.06715727239762,25.483654207618272],[87.71085651672797,25.258194487239926],[87.89130067625166,24.855391450222513],[87.83930829130415,24.74541109881844],[87.88977148845908,24.565318273394276],[87.638984690477,24.254623780677772],[87.23374992544501,24.02503979712177],[87.08541870956536,23.811952866276382],[86.80098978014666,23.833948936557196],[86.80098978014666,23.69922300608721],[86.48597709487652,23.63598430402987],[85.88500629239508,23.48338656645672],[85.85901009992133,23.42977114514723],[85.88500629239508,23.16719305617001],[86.24130704806473,22.9967235114937],[86.55937810892004,22.713524106628213],[86.72758876610314,22.21586301652479],[87.10071058749111,21.86392589203176],[87.24292505220045,21.964282962687975],[87.44171946523501,21.767693084553198],[87.48453672342708,21.61509534698005]]]},"properties":{"name":"West Bengal"}},
{"type":"Feature","geometry":{"type":"Polygon","coordinates":[[[73.21109786754502,20.120737322277222],[73.16675142156039,20.28845735816843],[72.96184025735553,20.208721603400477],[73.21109786754502,20.120737322277222]]]},"properties":{"name":"Dadra and Nagar Haveli and Daman and Diu"}},
{"type":"Feature","geometry":{"type":"MultiPolygon","coordinates":[[[[79.80801400470757,11.844715879120816],[79.84012694835161,11.956070984917439],[79.68567898130168,11.880459493327141],[79.80801400470757,11.844715879120816]]],[[[79.84930207510706,10.827397628633154],[79.85083126289963,10.985494383776505],[79.7483756807972,10.996492418916914],[79.72390867611603,10.92912945368192],[79.84930207510706,10.827397628633154]]]]},"properties":{"name":"Puducherry"}},
{"type":"Feature","geometry":{"type":"Polygon","coordinates":[[[73.05359152490995,8.273103967273585],[73.01842020568075,8.275853476058687],[73.04288721036193,8.263480686525728],[73.05359152490995,8.273103967273585]]]},"properties":{"name":"Lakshadweep"}},
{"type":"Feature","geometry":{"type":"Polygon","coordinates":[[[92.11338817154738,26.892777459982945],[92.35958740615173,26.925771565404165],[92.65624983791102,27.00825682895722],[93.06148460294303,26.921647302226514],[93.39790591730922,26.957390916432836],[93.69762672465365,26.99450928503171],[94.21907976192124,27.504543164668092],[94.26648458349102,27.519665462986154],[94.21296301075094,27.60627498971686],[95.13659243746541,27.815237657384596],[95.51430182223109,27.879851113834487],[95.51888938560882,27.883975377012142],[95.96999978441802,27.95958686860244],[95.7742637469686,27.732752393831543],[95.87366095348588,27.54441104205207],[95.63357847005183,27.230967040550464],[95.48371806637961,27.24196507569087],[95.37667492089946,27.096241110080477],[95.3690289819366,27.109988654005985],[95.19623076137577,27.034377162415687],[95.23446045619012,26.682440037922657],[95.4959515687202,26.817165968392644],[95.68404166720676,26.90377549512335],[96.60614190612864,27.365692971020454],[97.16429545041801,27.141608005034655],[96.86151626748844,27.631020568782777],[97.37073580241545,28.21804069440201],[96.31406703774708,28.383011221508117],[96.32630054008767,28.51086338001535],[96.51897820195194,28.96728183834225],[96.08927643223876,29.45944391087547],[95.26963177541931,29.049767101895302],[94.6793652874859,29.327467489190585],[94.1869668182772,29.038769066754895],[93.96217621276887,28.712952275720333],[93.22357850895582,28.34176858973159],[92.73423841533227,27.97608392131305],[92.46815973942446,27.815237657384596],[91.63016482909413,27.80149011345909],[92.0139909650301,27.489420866350034],[92.11338817154738,26.892777459982945]]]},"properties":{"name":"Arunachal Pradesh"}},
{"type":"Feature","geometry":{"type":"Polygon","coordinates":[[[93.00949221799551,24.412720535821126],[93.08748079541677,24.572192045357028],[93.17464449959347,24.797651765735377],[93.24651632584442,24.97224557358934],[93.46977774356017,25.30631089097921],[93.3290924666434,25.54276864649796],[93.51259500175223,25.674745068182848],[93.7756153020749,25.96894250818874],[93.954530273806,25.96894250818874],[94.1640290013886,26.35112422931789],[94.3138894050608,26.461104580721962],[94.58608483213891,26.725057424091734],[94.73594523581112,26.749803003157652],[94.79099599634377,26.79654465250438],[94.92403533429767,26.94914239007753],[95.19623076137577,27.034377162415687],[95.3690289819366,27.109988654005985],[95.37667492089946,27.096241110080477],[95.48371806637961,27.24196507569087],[95.63357847005183,27.230967040550464],[95.87366095348588,27.54441104205207],[95.7742637469686,27.732752393831543],[95.96999978441802,27.95958686860244],[95.51888938560882,27.883975377012142],[95.51430182223109,27.879851113834487],[95.13659243746541,27.815237657384596],[94.21296301075094,27.60627498971686],[94.26648458349102,27.519665462986154],[94.21907976192124,27.504543164668092],[93.69762672465365,26.99450928503171],[93.39790591730922,26.957390916432836],[93.06148460294303,26.921647302226514],[92.65624983791102,27.00825682895722],[92.35958740615173,26.925771565404165],[92.11338817154738,26.892777459982945],[91.70356584313765,26.813041705214992],[90.95120544919143,26.777298091008667],[90.33647195657684,26.862532863346825],[89.85171942633102,26.69756233624072],[89.83489836061271,26.414362931375234],[89.84254429957558,26.38274358034656],[89.72938440292513,26.17103140389372],[89.84254429957558,25.882332981458035],[89.87159886763448,25.47678043565552],[90.01993008351411,25.607382102947856],[90.12238566561655,25.959319227440886],[90.43433997530157,25.990938578469557],[91.02613565102754,25.886457244635686],[91.00778539751667,25.824593296970896],[91.33503158512741,25.841090349681508],[91.72344528444111,26.034930719031184],[92.17302649545775,26.07617335080771],[92.27395288976761,26.065175315667304],[92.15161786636173,25.671995559397747],[92.66083740128873,25.57163848874153],[92.56908613373432,25.465782400515113],[92.54003156567542,25.09872297770402],[92.4253424812324,25.02998525807648],[92.51556456099425,24.88013702928843],[92.21431456585725,24.508953343299687],[92.29536151886364,24.245000499929915],[92.42228410564725,24.250499517500117],[92.53238562671255,24.17763753469492],[92.7617637955986,24.51307760647734],[92.89633232134507,24.39072446554031],[93.00949221799551,24.412720535821126]]]},"properties":{"name":"Assam"}},
{"type":"Feature","geometry":{"type":"Polygon","coordinates":[[[95.19623076137577,27.034377162415687],[94.92403533429767,26.94914239007753],[94.79099599634377,26.79654465250438],[94.73594523581112,26.749803003157652],[94.58608483213891,26.725057424091734],[94.3138894050608,26.461104580721962],[94.1640290013886,26.35112422931789],[93.954530273806,25.96894250818874],[93.7756153020749,25.96894250818874],[93.51259500175223,25.674745068182848],[93.3290924666434,25.54276864649796],[93.46977774356017,25.30631089097921],[93.8046698701338,25.46303289173001],[93.93618002029513,25.559265699208574],[94.19002519386234,25.548267664068167],[94.4882168134142,25.60463259416275],[94.67477772410817,25.44516108462685],[94.88274726389818,25.586760787059593],[95.01425741405951,25.89058150781334],[95.12282974733225,26.34837472053279],[95.23446045619012,26.682440037922657],[95.19623076137577,27.034377162415687]]]},"properties":{"name":"Nagaland"}},
{"type":"Feature","geometry":{"type":"Polygon","coordinates":[[[89.87159886763448,25.47678043565552],[89.97405444973691,25.299437119016453],[90.23401637447442,25.203204311537892],[90.96955570270232,25.172959714901772],[91.35491102643087,25.23344890817401],[92.01704934061524,25.18945676761238],[92.1990226879315,25.12484331116249],[92.4253424812324,25.02998525807648],[92.54003156567542,25.09872297770402],[92.56908613373432,25.465782400515113],[92.66083740128873,25.57163848874153],[92.15161786636173,25.671995559397747],[92.27395288976761,26.065175315667304],[92.17302649545775,26.07617335080771],[91.72344528444111,26.034930719031184],[91.33503158512741,25.841090349681508],[91.00778539751667,25.824593296970896],[91.02613565102754,25.886457244635686],[90.43433997530157,25.990938578469557],[90.12238566561655,25.959319227440886],[90.01993008351411,25.607382102947856],[89.87159886763448,25.47678043565552]]]},"properties":{"name":"Meghalaya"}},
{"type":"Feature","geometry":{"type":"Polygon","coordinates":[[[93.25263307701472,24.02091553394412],[93.37802647600576,24.08827849917911],[93.7404439828457,24.005793235626058],[94.25272189335786,24.11439883263758],[94.37505691676375,24.49383104498163],[94.65336909501215,25.115220030414633],[94.67477772410817,25.44516108462685],[94.4882168134142,25.60463259416275],[94.19002519386234,25.548267664068167],[93.93618002029513,25.559265699208574],[93.8046698701338,25.46303289173001],[93.46977774356017,25.30631089097921],[93.24651632584442,24.97224557358934],[93.17464449959347,24.797651765735377],[93.08748079541677,24.572192045357028],[93.00949221799551,24.412720535821126],[93.2067574432375,24.047035867402585],[93.25263307701472,24.02091553394412]]]},"properties":{"name":"Manipur"}},
{"type":"Feature","geometry":{"type":"Polygon","coordinates":[[[92.29536151886364,24.245000499929915],[92.21431456585725,24.508953343299687],[92.07057091335533,24.3769769216148],[91.92376888526826,24.108899815067375],[91.75555822808516,24.1418939204886],[91.4696001108739,24.062158165720646],[91.22645925185469,23.73221711150843],[91.31973970720168,23.277173407574082],[91.7586166036703,23.266175372433676],[91.80449223744752,23.51500591748539],[92.1760848710429,23.707471532442515],[92.26477776301218,23.726718093938228],[92.29536151886364,24.245000499929915]]]},"properties":{"name":"Tripura"}},
{"type":"Feature","geometry":{"type":"Polygon","coordinates":[[[92.87339450445647,12.331378934083835],[93.04313434943214,13.528790009995667],[92.84128156081242,13.391314570740576],[92.69906709610308,12.328629425298733],[92.87339450445647,12.331378934083835]]]},"properties":{"name":"Andaman and Nicobar Islands"}},
{"type":"Feature","geometry":{"type":"Polygon","coordinates":[[[82.81286801711471,23.96180109506443],[83.32973349100459,24.102026043104622],[83.50253171156541,24.5254503960103],[83.52394034066143,24.550195975076214],[83.39548856608525,24.781154713024765],[83.5377030307946,25.30906039976431],[83.77931470202122,25.39841943528012],[83.93070429348602,25.557890944816023],[84.3191179927997,25.667871296220095],[84.60048854663326,25.732484752669986],[84.47203677205707,25.882332981458035],[84.05609769247705,26.099544175481075],[84.1570240867869,26.375869808383808],[84.05151012909933,26.55183837063032],[84.418515199317,26.631574125398274],[83.9077664765974,27.274959181112095],[83.8618908428202,27.335448374384335],[83.29150379619024,27.335448374384335],[82.7318210641083,27.486671357564934],[82.20730965125556,27.844107499628166],[81.74243656231317,27.952713096639688],[81.05277286786249,28.40500729178893],[80.31417516404943,28.62909225777473],[80.06491755385994,28.836680171049913],[79.68262060571654,28.854551978153076],[79.42265868097903,28.897169364322153],[78.97460665775495,29.130877611055805],[78.76052036679465,29.26422878713324],[78.8507424465565,29.34808880507885],[78.92567264839259,29.438822594987208],[78.33540616045919,29.79763349144299],[78.02039347518902,29.5817970518125],[77.82006987436188,29.67390559611341],[77.95922596348608,30.24167916023693],[77.5753998275501,30.401150669772836],[77.57998739092783,30.379154599492022],[77.22674501084332,29.939233193875733],[77.15181480900722,29.68765314003892],[77.13193536770376,29.484189489941386],[77.15487318459236,29.297222892554466],[77.14263968225177,29.16662122526213],[77.21604069629531,28.853177223760525],[77.2221574474656,28.83118115347971],[77.34143409528635,28.609845696279017],[77.34755084645664,28.520486660763208],[77.50046962571399,28.205667904869053],[77.47600262103282,28.084689518324573],[77.5295241937729,27.92659276318122],[77.34449247087149,27.849606517198367],[77.28332495916854,27.798740604673984],[77.64574246600849,27.24196507569087],[77.45459399193679,26.742929231194896],[78.22224626380874,26.832288266710705],[78.54490488804177,26.76355054708316],[78.78039980809811,26.769049564653365],[79.13517137597518,26.4404832648337],[78.93790615073318,25.95244545547813],[78.88591376578569,25.912577578094155],[78.45162443269479,25.57163848874153],[78.39045692099184,25.205953820322993],[78.44703686931706,25.12209380237739],[78.37363585527352,25.09872297770402],[78.19013332016469,24.841643906297005],[78.26812189758594,24.449838904419998],[78.99142772347327,24.416844798998778],[78.98531097230297,24.441590378064692],[78.63971453118134,25.071227889853006],[78.55866757817493,25.21282759228575],[78.87979701461539,25.15783741658371],[79.32326147446173,25.149588890228404],[79.28044421626967,25.32418269808237],[79.84012694835161,25.09872297770402],[80.10467643646685,25.350303031540836],[80.2637119668945,25.024486240506274],[80.4777982578548,24.97636983676699],[80.71482236570372,25.0657288722828],[81.12005713073572,24.903507853961795],[81.54058377369347,25.18808201321983],[82.09414975460511,24.81689832723109],[82.2975317310174,24.606560905170802],[82.52385152431829,24.6766733791909],[82.81286801711471,23.96180109506443]]]},"properties":{"name":"Uttar Pradesh"}},
{"type":"Feature","geometry":{"type":"Polygon","coordinates":[[[78.22224626380874,26.832288266710705],[77.45459399193679,26.742929231194896],[77.64574246600849,27.24196507569087],[77.28332495916854,27.798740604673984],[76.97748740065381,27.65439139345614],[76.85362318945536,28.22079020318711],[76.3122907108843,28.178172817018034],[76.22512700670761,27.83310946448776],[76.07679579082797,27.841357990843065],[75.93305213832605,27.92796751757377],[75.89329325571913,28.389884993470872],[75.67003183800338,28.519111906370657],[75.47429580055396,28.926039206565722],[75.52781737329404,28.9714061015199],[75.34584402597778,29.283475348628954],[75.2403300682902,29.26010452395559],[74.60265875878702,29.364585857789457],[74.52619936915833,29.940607948268283],[74.44821079173708,29.94748172023104],[74.29835038806486,29.954355492193795],[73.96804582486897,30.19356275649765],[73.397658778239,29.94610696583849],[72.94501919163721,29.02777103161449],[72.6621194500111,28.8930451011445],[71.88070448800599,27.91421997364826],[70.75828064825696,27.721754358691136],[70.37139613673584,28.011827535519377],[69.58692279914558,27.184225391203736],[69.5104634095169,26.742929231194896],[70.17413091149385,26.55183837063032],[70.14048878005723,26.155909105575663],[71.11152302834147,24.675298624798344],[71.18798241797015,24.65055304573243],[71.28737962448743,24.61618418591866],[71.28824968119207,24.61627698803492],[71.5384520056207,24.678155307663463],[71.54962063345098,24.6779190558326],[71.58010133262442,24.677274292563993],[71.60738114013292,24.67669723828594],[71.60818276663083,24.676680281348105],[71.65727334839815,24.639925782114034],[71.73285302211572,24.660538870421554],[71.77033936215668,24.67076264090881],[71.79212816790482,24.676669591267288],[71.86502409385695,24.67430088770692],[71.91534640834695,24.672665698305845],[71.99230841664279,24.693570653594442],[71.99541716126785,24.694461301285894],[72.05812323191954,24.71238905528465],[72.08671890297352,24.688150290643886],[72.14147694403766,24.641735318705038],[72.16357056925297,24.623007932288964],[72.19632485248738,24.623704205092512],[72.25101456591234,24.62724774191],[72.25831854619116,24.627720992205376],[72.28465597866845,24.62942748609274],[72.3348371658639,24.63267889980908],[72.33487326240035,24.632681238629267],[72.34068093691786,24.610926427316382],[72.35358902785798,24.563577268342843],[72.35382857336779,24.563337238703372],[72.40265269877902,24.514414438066076],[72.43185886624784,24.48514924393465],[72.49989802475449,24.416972575963342],[72.50005787366794,24.416981179424894],[72.50020986581414,24.417622347549955],[72.51909731245334,24.497297706124236],[72.52103497171726,24.500448476281786],[72.56539853358129,24.490384474903184],[72.68204227867083,24.46392350644028],[72.68332351347208,24.46363285464714],[72.81614394661773,24.364725990178023],[72.87531424942908,24.362964577400437],[72.95834978197382,24.3604927318788],[72.95878188177038,24.36047986890419],[72.95887932517748,24.3607520625455],[73.00159913996245,24.480083501056118],[73.37777933693555,23.90406141057729],[73.36860421018011,23.814702375061483],[73.62703694712505,23.449017706642945],[73.95887069811351,23.3802799870154],[73.98180851500213,23.337662600846322],[74.31975901716089,23.059962213551042],[74.73416890894833,23.220808477479498],[74.77239860376268,23.542501005336405],[74.94060926094578,23.76521121692965],[74.90849631730173,24.212006394508695],[74.69746840192657,24.48283300984122],[75.19139605892785,25.03685903003923],[75.35196077714808,25.01898722293607],[75.54922600239007,24.702793712649363],[75.78472092244641,24.761908151529052],[75.92081863598546,24.54332220311346],[75.46206229821338,23.917808954502803],[75.68991127930684,23.74733940982649],[76.21289350436702,24.20925688572359],[76.88114856972169,24.130895885348192],[76.84444806269991,24.43609136049449],[76.87656100634396,25.040983293216886],[77.31237952722745,25.080851170600862],[77.0830013583414,25.33655548761533],[76.59366126471785,25.408042716027975],[76.54625644314807,25.838340840896407],[76.85209400166279,26.032181210246083],[77.11970186536317,26.213648790062802],[77.37507622672297,26.3648717732434],[78.22224626380874,26.832288266710705]]]},"properties":{"name":"Rajasthan"}},
{"type":"Feature","geometry":{"type":"Polygon","coordinates":[[[77.21604069629531,28.853177223760525],[76.94231608142462,28.798187048058487],[76.88420694530683,28.502614853660045],[77.17475262589582,28.40500729178893],[77.34755084645664,28.520486660763208],[77.34143409528635,28.609845696279017],[77.2221574474656,28.83118115347971],[77.21604069629531,28.853177223760525]]]},"properties":{"name":"Delhi"}},
{"type":"Feature","geometry":{"type":"Polygon","coordinates":[[[77.34755084645664,28.520486660763208],[77.17475262589582,28.40500729178893],[76.88420694530683,28.502614853660045],[76.94231608142462,28.798187048058487],[77.21604069629531,28.853177223760525],[77.14263968225177,29.16662122526213],[77.15487318459236,29.297222892554466],[77.13193536770376,29.484189489941386],[77.15181480900722,29.68765314003892],[77.22674501084332,29.939233193875733],[77.57998739092783,30.379154599492022],[77.20839475733244,30.48776019650354],[77.12276024094831,30.56337168809384],[77.0248922222236,30.74896353108821],[76.77716379982668,30.904310777446465],[76.83833131152963,30.754462548658417],[76.8276269969816,30.68160056585322],[76.90714476219543,30.458890354259974],[76.74810923176778,30.428645757623855],[76.64259527408021,30.14957061593602],[76.46673867793425,30.098704703411638],[76.21442269215959,29.840250877612068],[76.098204419924,29.810006280975948],[75.94681482845921,29.728895771815445],[75.72049503515832,29.814130544153603],[75.30302676778572,29.559800981531687],[75.19139605892785,29.844375140789722],[74.70511434088944,29.974976808082058],[74.52619936915833,29.940607948268283],[74.60265875878702,29.364585857789457],[75.2403300682902,29.26010452395559],[75.34584402597778,29.283475348628954],[75.52781737329404,28.9714061015199],[75.47429580055396,28.926039206565722],[75.67003183800338,28.519111906370657],[75.89329325571913,28.389884993470872],[75.93305213832605,27.92796751757377],[76.07679579082797,27.841357990843065],[76.22512700670761,27.83310946448776],[76.3122907108843,28.178172817018034],[76.85362318945536,28.22079020318711],[76.97748740065381,27.65439139345614],[77.28332495916854,27.798740604673984],[77.34449247087149,27.849606517198367],[77.5295241937729,27.92659276318122],[77.47600262103282,28.084689518324573],[77.50046962571399,28.205667904869053],[77.34755084645664,28.520486660763208]]]},"properties":{"name":"Haryana"}},
{"type":"Feature","geometry":{"type":"Polygon","coordinates":[[[88.72164964761913,27.138858496249554],[88.79352147387009,27.416558883544837],[88.6191940655167,28.09843706225008],[88.11456209396741,27.61864777924982],[88.03810270433873,27.219969005410057],[88.28124356335792,27.131984724286802],[88.42498721585984,27.071495531014563],[88.53203036133999,27.17597686484843],[88.72164964761913,27.138858496249554]]]},"properties":{"name":"Sikkim"}},
{"type":"Feature","geometry":{"type":"Polygon","coordinates":[[[88.10997453058968,26.54771410745267],[87.65886413178046,26.37999407156146],[87.0426014513733,26.560086896985627],[86.72300120272541,26.42536096651564],[85.81619284172928,26.599954774369603],[85.25498092185475,26.753927266335303],[84.75799488926833,27.002757811387017],[84.6203679879367,27.339572637561986],[83.8618908428202,27.335448374384335],[83.9077664765974,27.274959181112095],[84.418515199317,26.631574125398274],[84.05151012909933,26.55183837063032],[84.1570240867869,26.375869808383808],[84.05609769247705,26.099544175481075],[84.47203677205707,25.882332981458035],[84.60048854663326,25.732484752669986],[84.3191179927997,25.667871296220095],[83.93070429348602,25.557890944816023],[83.77931470202122,25.39841943528012],[83.5377030307946,25.30906039976431],[83.39548856608525,24.781154713024765],[83.52394034066143,24.550195975076214],[83.50253171156541,24.5254503960103],[83.87259515736821,24.53232416797305],[84.00869287090727,24.642304519377124],[84.32676393176257,24.489706781803974],[84.49650377673825,24.287617886098992],[85.08829945246424,24.370103149652046],[85.33144031148343,24.510328097692238],[85.3742575696755,24.55432023825387],[85.9018273581134,24.766032414706704],[86.05474613737076,24.779779958632215],[86.4523349634399,24.37285265843715],[86.61137049386755,24.607935659563353],[86.91262048900455,24.547446466291113],[87.05177657812874,24.627182221059066],[87.1756407893272,25.057480345927495],[87.47841997225677,25.194955785182586],[87.55182098630031,25.331056470045123],[87.71085651672797,25.258194487239926],[88.06715727239762,25.483654207618272],[87.82707478896356,25.89058150781334],[87.85001260585217,26.039054982208835],[88.23995549295844,26.45835507193686],[88.10997453058968,26.54771410745267]]]},"properties":{"name":"Bihar"}},
{"type":"Feature","geometry":{"type":"Polygon","coordinates":[[[84.01175124649241,22.527932263633843],[85.06994919895335,22.490813895034968],[85.23815985613645,22.009649857642156],[85.68315350377537,22.05776626138144],[85.96299486981634,22.485314877464766],[86.06697963971135,22.556802105877413],[86.72758876610314,22.21586301652479],[86.55937810892004,22.713524106628213],[86.24130704806473,22.9967235114937],[85.88500629239508,23.16719305617001],[85.85901009992133,23.42977114514723],[85.88500629239508,23.48338656645672],[86.48597709487652,23.63598430402987],[86.80098978014666,23.69922300608721],[86.80098978014666,23.833948936557196],[87.08541870956536,23.811952866276382],[87.23374992544501,24.02503979712177],[87.638984690477,24.254623780677772],[87.88977148845908,24.565318273394276],[87.83930829130415,24.74541109881844],[87.89130067625166,24.855391450222513],[87.71085651672797,25.258194487239926],[87.55182098630031,25.331056470045123],[87.47841997225677,25.194955785182586],[87.1756407893272,25.057480345927495],[87.05177657812874,24.627182221059066],[86.91262048900455,24.547446466291113],[86.61137049386755,24.607935659563353],[86.4523349634399,24.37285265843715],[86.05474613737076,24.779779958632215],[85.9018273581134,24.766032414706704],[85.3742575696755,24.55432023825387],[85.33144031148343,24.510328097692238],[85.08829945246424,24.370103149652046],[84.49650377673825,24.287617886098992],[84.32676393176257,24.489706781803974],[84.00869287090727,24.642304519377124],[83.87259515736821,24.53232416797305],[83.50253171156541,24.5254503960103],[83.32973349100459,24.102026043104622],[84.01633880987013,23.634609549637318],[84.07444794598793,23.33353833766867],[84.03774743896616,23.171317319347665],[84.29312180032596,22.772638545507903],[84.01175124649241,22.527932263633843]]]},"properties":{"name":"Jharkhand"}},
{"type":"Feature","geometry":{"type":"Polygon","coordinates":[[[76.77257623644896,33.251016525530844],[77.2741498324131,32.8743338219719],[77.74055210914806,32.969191875057916],[78.3981028599547,32.52514620626397],[78.98072340892524,32.33817960887705],[79.62604065739131,32.73960789150191],[79.4532424368305,33.2578902974936],[78.98836934788811,33.3335017890839],[78.90426401929656,33.97551209040517],[80.06797592944508,34.713755199204996],[80.32640866639002,35.469870115107994],[79.9976332909867,35.83692953791909],[79.21468914118901,35.97852924035183],[77.61210033457186,35.468495360715444],[76.93467014246175,35.7833141166096],[75.34278565039264,37.05221242093408],[74.70817271647459,37.07695799999999],[73.70043796116857,36.68377824373044],[73.1254633511609,36.686527752515545],[72.53366767543491,35.916665292687036],[73.78454328976014,35.52486029081003],[74.14696079660007,35.0973116747267],[74.31975901716089,34.786617182010204],[74.60112957099443,34.73712602387837],[75.37489859403668,34.38793840817044],[75.38407372079212,34.36181807471198],[75.49723361744257,34.23396591620474],[75.59510163616729,34.19822230199841],[76.77257623644896,33.251016525530844]]]},"properties":{"name":"Ladakh"}},
{"type":"Feature","geometry":{"type":"Polygon","coordinates":[[[74.14696079660007,35.0973116747267],[73.44659278760136,34.57353025116481],[73.48788085800085,34.144606880688926],[73.59798237906615,33.712934001427946],[73.62703694712505,33.090170261602395],[74.4466816039445,32.78909904963375],[74.88861687599828,32.521021943086325],[75.20515874906101,32.417915363645],[75.34125646260006,32.34642813523236],[75.83671330739391,32.511398662338465],[75.80154198816471,32.885331857112305],[76.22206863112245,33.021432541974846],[76.74810923176778,33.1795292971182],[76.77257623644896,33.251016525530844],[75.59510163616729,34.19822230199841],[75.49723361744257,34.23396591620474],[75.38407372079212,34.36181807471198],[75.37489859403668,34.38793840817044],[74.60112957099443,34.73712602387837],[74.31975901716089,34.786617182010204],[74.14696079660007,35.0973116747267]]]},"properties":{"name":"Jammu and Kashmir"}},
{"type":"Feature","geometry":{"type":"Polygon","coordinates":[[[77.5753998275501,30.401150669772836],[77.70385160212629,30.764085829406273],[77.82924500111733,31.029413427168596],[78.310939155778,31.28374298979051],[78.88132620240796,31.28374298979051],[78.67335666261795,32.078351028684935],[78.3981028599547,32.52514620626397],[77.74055210914806,32.969191875057916],[77.2741498324131,32.8743338219719],[76.77257623644896,33.251016525530844],[76.74810923176778,33.1795292971182],[76.22206863112245,33.021432541974846],[75.80154198816471,32.885331857112305],[75.83671330739391,32.511398662338465],[75.93152295053348,32.39454453897164],[75.60121838733758,32.09347332700299],[75.59816001175243,32.08247529186258],[75.96057751859237,31.857015571484236],[76.2893528939957,31.307113814463875],[76.39180847609813,31.412969902690296],[76.64565364966535,31.209506252592764],[76.73281735384205,30.937304882867686],[76.77716379982668,30.904310777446465],[77.0248922222236,30.74896353108821],[77.12276024094831,30.56337168809384],[77.20839475733244,30.48776019650354],[77.57998739092783,30.379154599492022],[77.5753998275501,30.401150669772836]]]},"properties":{"name":"Himachal Pradesh"}},
{"type":"Feature","geometry":{"type":"Polygon","coordinates":[[[74.52619936915833,29.940607948268283],[74.70511434088944,29.974976808082058],[75.19139605892785,29.844375140789722],[75.30302676778572,29.559800981531687],[75.72049503515832,29.814130544153603],[75.94681482845921,29.728895771815445],[76.098204419924,29.810006280975948],[76.21442269215959,29.840250877612068],[76.46673867793425,30.098704703411638],[76.64259527408021,30.14957061593602],[76.74810923176778,30.428645757623855],[76.90714476219543,30.458890354259974],[76.8276269969816,30.68160056585322],[76.70987953695344,30.761336320621172],[76.83833131152963,30.754462548658417],[76.77716379982668,30.904310777446465],[76.73281735384205,30.937304882867686],[76.64565364966535,31.209506252592764],[76.39180847609813,31.412969902690296],[76.2893528939957,31.307113814463875],[75.96057751859237,31.857015571484236],[75.59816001175243,32.08247529186258],[75.60121838733758,32.09347332700299],[75.93152295053348,32.39454453897164],[75.83671330739391,32.511398662338465],[75.34125646260006,32.34642813523236],[75.3794861574144,32.182832362518795],[74.91308388067945,32.04398216887115],[74.61183388554245,31.499579429421004],[74.70817271647459,31.072030813337673],[74.21577424726588,30.691223846601076],[73.96804582486897,30.19356275649765],[74.29835038806486,29.954355492193795],[74.44821079173708,29.94748172023104],[74.52619936915833,29.940607948268283]]]},"properties":{"name":"Punjab"}},
{"type":"Feature","geometry":{"type":"Polygon","coordinates":[[[80.06491755385994,28.836680171049913],[80.07409268061538,28.94116150488378],[80.24230333779848,29.44432161255741],[80.9992512951224,30.2677994936954],[80.1016180608817,30.788831408472188],[79.40736680305328,31.073405567730223],[78.88132620240796,31.28374298979051],[78.310939155778,31.28374298979051],[77.82924500111733,31.029413427168596],[77.70385160212629,30.764085829406273],[77.5753998275501,30.401150669772836],[77.95922596348608,30.24167916023693],[77.82006987436188,29.67390559611341],[78.02039347518902,29.5817970518125],[78.33540616045919,29.79763349144299],[78.92567264839259,29.438822594987208],[78.8507424465565,29.34808880507885],[78.76052036679465,29.26422878713324],[78.97460665775495,29.130877611055805],[79.42265868097903,28.897169364322153],[79.68262060571654,28.854551978153076],[80.06491755385994,28.836680171049913]]]},"properties":{"name":"Uttarakhand"}},
{"type":"Feature","geometry":{"type":"Polygon","coordinates":[[[76.83833131152963,30.754462548658417],[76.70987953695344,30.761336320621172],[76.8276269969816,30.68160056585322],[76.83833131152963,30.754462548658417]]]},"properties":{"name":"Chandigarh"}}
]}