{"type":"Topology","arcs":[[[4472,3181],[5,105]],[[4477,3286],[24,2],[20,-15],[43,68],[25,-25],[21,5]],[[4610,3321],[36,-75],[9,-5]],[[4655,3241],[25,-107],[-6,-34],[-30,-56],[-13,-10],[-5,-45],[12,-124],[-57,-24],[-64,139],[-20,107],[-25,94]],[[2168,779],[-28,-16],[22,-7]],[[2162,756],[1,-86],[7,-89]],[[2170,581],[-19,2],[-4,-14],[23,-21]],[[2170,548],[4,-95],[-74,-9],[-45,-36],[-21,-59],[-9,-113],[-126,-41],[-77,-155],[-71,-40],[-91,31]],[[1660,31],[32,58],[-13,40],[10,22],[-9,39],[14,46],[11,25],[12,22],[-25,122],[3,22],[-36,17],[-8,-11],[-29,0],[-11,16],[-23,184],[-49,-8],[-39,66],[34,30]],[[1534,721],[80,-16],[153,73],[13,41],[-51,18],[24,87],[43,40],[7,1],[67,-22]],[[1870,943],[34,-27],[35,44],[116,64],[10,-7],[140,85],[43,5]],[[2248,1107],[6,-86],[-10,-58],[-44,-123],[-32,-61]],[[1113,2818],[-16,123],[59,17],[-11,87]],[[1145,3045],[77,32],[7,66],[31,46],[-6,91],[-39,55],[92,113],[30,-4],[36,-64],[44,12],[25,-45],[-85,-127],[42,-35],[97,94],[124,-16],[-7,62],[6,124],[81,8],[-43,52],[-90,15],[-9,88],[57,39],[49,37],[48,31],[157,95]],[[1869,3814],[59,-14],[44,2],[66,-68],[-37,-99],[-9,-8],[-81,-70],[-11,-74],[10,-18],[-13,-4],[-34,-53],[14,-80],[134,-6],[-1,5],[-64,128],[-15,29],[59,-11],[83,-2],[-8,36],[103,-46],[49,51],[30,-66],[40,-10],[44,18],[75,-33],[78,58],[102,-76],[38,-43],[42,15],[53,-146]],[[2719,3229],[-22,-9],[-36,-28],[-53,15],[-113,6],[71,-96],[26,-63],[-73,-88],[0,-1],[-48,-37],[-52,1],[-27,-52],[-37,-82],[-34,-103]],[[2321,2692],[-138,39],[-70,4],[-6,11],[-51,25],[-148,-45],[-17,18],[-159,-43],[-79,69],[-51,-32],[-23,-56],[-51,-42],[-74,60],[-70,4],[-74,4],[-80,42],[-64,85],[-53,-17]],[[2321,2692],[-19,-104],[-3,-147],[24,-81],[33,-69],[-96,-45],[-11,-87]],[[2249,2159],[-67,22],[3,67],[-23,86],[-161,-6],[-18,44],[-99,30],[-21,-121],[-45,-97],[-39,-58],[-35,-54]],[[1744,2072],[-53,26],[-97,-106],[-10,-45],[-48,-8],[-65,-62],[-88,-7],[-48,-71],[-120,-49],[-90,-191],[-17,-26]],[[1108,1533],[-80,16]],[[1028,1549],[-63,163],[-56,296],[-39,180],[-9,82],[2,8],[-4,169]],[[859,2447],[34,16]],[[893,2463],[47,-18]],[[940,2445],[7,0],[29,103],[12,19],[87,25],[-10,19],[-7,13],[0,0],[-8,2],[33,105],[-8,72],[38,15]],[[2719,3229],[96,28]],[[2815,3257],[128,-95],[10,-62],[-6,-33],[47,-81],[-52,-50]],[[2942,2936],[-39,-48],[-39,-95],[-20,-37],[-40,-55],[-117,-59],[-55,-43],[11,-167],[59,-14],[-23,-44],[-107,56],[-26,1],[28,-111],[33,-79],[-21,-78],[-36,-16],[-93,-172]],[[2457,1975],[-58,-4]],[[2399,1971],[-19,75],[-42,1],[-71,90],[-18,22]],[[940,2445],[-9,34],[-38,-16]],[[859,2447],[10,48],[11,19],[-6,59],[-20,64],[-2,84],[-42,96],[66,55],[15,16],[-106,5],[-24,-66],[-25,-162],[-81,-41],[-87,-41],[-38,-11],[-15,0],[-126,51],[-48,48],[-109,135],[-79,70],[146,38],[138,105],[35,37],[-289,-49],[-183,148],[115,142],[234,-26],[201,103]],[[550,3374],[15,-5],[18,-7],[0,0],[47,13],[2,0],[5,0],[5,0],[1,0],[9,-8],[14,4],[7,2],[4,2],[13,-1],[9,0],[15,4],[0,0],[12,4],[5,-5],[10,-10],[4,-3],[7,0],[10,0],[1,1],[5,0],[9,1],[0,0],[1,-5],[3,-10],[0,0],[9,-10],[5,-6],[13,-13],[0,0],[0,0],[3,16],[1,1],[8,-2],[22,-6],[0,0],[24,-20],[11,0],[16,-1],[0,0],[0,0],[8,24],[70,-117],[-2,-18],[48,-75],[61,-14],[5,-9],[62,-56]],[[2942,2936],[196,-7],[31,-99],[83,10],[51,87],[20,15],[122,-70]],[[3445,2872],[69,-71],[27,20],[37,-40],[7,-31]],[[3585,2750],[-115,-82],[-10,-98],[-6,-81],[-75,-72],[-222,-105],[-87,-72]],[[3070,2240],[-52,-34],[-117,14],[-7,-22],[-75,22],[-50,-126],[-121,17],[-83,-96],[-108,-40]],[[1870,943],[66,105],[-72,60],[-13,44],[-124,-21],[-95,84],[11,21],[0,8],[-45,154],[73,30],[-24,143],[90,18]],[[1737,1589],[136,9],[2,8],[123,23],[55,21],[-1,27],[87,68],[73,26],[-4,31],[153,20],[12,31],[-6,85],[32,33]],[[3070,2240],[-107,-164],[-86,-48],[-27,-26],[-181,-143],[-42,-141],[-111,-50],[-30,7],[-134,-131],[-76,19],[-70,-161],[42,-295]],[[1534,721],[-1,17],[-55,46],[-33,-8],[-97,71],[0,43],[-101,53]],[[1247,943],[-17,63],[-36,175],[-92,199]],[[1102,1380],[30,120],[6,6],[-30,27]],[[1744,2072],[9,-4],[-29,-141],[45,-15],[-40,-113],[-2,-15],[-32,-97],[57,-13],[-15,-85]],[[1102,1380],[-28,108],[-46,61]],[[1660,31],[-77,99],[-38,71],[-36,136],[-13,82],[-47,101],[-25,89],[-50,118],[-72,79],[-55,137]],[[3445,2872],[-31,102],[-59,58],[-66,35],[-5,53],[5,11],[111,31],[59,13],[0,28],[52,-5],[28,44],[75,46],[47,64],[-10,37],[10,22],[-34,82]],[[3627,3493],[66,46],[-44,83],[4,31],[72,85],[-24,18]],[[3701,3756],[-13,138]],[[3688,3894],[45,-18],[27,-13],[20,22],[35,-8]],[[3815,3877],[27,-35],[41,-26],[141,-29]],[[4024,3787],[-3,-58],[2,-6],[-21,-43]],[[4002,3680],[-71,-33],[-109,65],[-67,64],[-12,-30],[-43,-136],[64,-48],[86,-85],[-88,4],[-76,-104],[125,-121],[1,-176],[65,-226],[-146,-81],[-23,46],[12,15],[-5,33],[-19,15],[-15,-4],[35,-28],[-43,-56],[-31,-27],[-57,-17]],[[2168,779],[-6,-23]],[[2170,581],[0,-33]],[[910,27],[-2,-2],[-4,3],[6,-1]],[[4443,3827],[-18,122],[-71,63],[155,3],[50,33],[90,74],[137,76],[42,67],[91,59],[110,-57],[151,84],[80,-101],[-36,-93],[-2,-26],[196,-34],[-94,-120],[56,-99],[-104,45],[-171,-94],[-35,-18],[-48,-27]],[[5022,3784],[-7,72]],[[5015,3856],[32,15],[1,-3],[20,30],[28,-2],[44,64],[-18,38],[36,46],[-83,-15],[-1,-1],[-70,-13],[-171,-43],[10,-17],[-9,-3],[-97,-104],[-55,-8],[-63,-7],[-75,17],[-55,-16],[-46,-7]],[[4477,3286],[-15,54]],[[4462,3340],[56,76],[-17,31]],[[4501,3447],[22,14],[5,75],[17,21],[-94,21],[22,80],[-18,2],[-84,-8],[-72,-40],[-60,-3],[3,12],[-110,22],[-58,-7],[-19,-72],[-27,-26]],[[4028,3538],[-5,83],[-21,59]],[[4024,3787],[90,34],[114,-18],[140,8],[75,16]],[[5015,3856],[-51,-18],[-24,-31],[-10,-9],[-28,-5],[-51,-54],[-27,-23],[-39,-78],[-33,0],[-49,-60],[-34,-27],[26,-48]],[[4695,3503],[-41,-68],[-14,-36],[-16,-46],[-14,-32]],[[5022,3784],[-21,-68],[-20,-94],[-24,-62],[-39,-29]],[[4918,3531],[-34,33],[-56,-12],[-47,3],[-24,-20],[-62,-32]],[[4501,3447],[-42,19],[-33,13],[-123,9],[-72,-12],[-136,6],[-48,20],[-19,36]],[[4918,3531],[-4,-67],[-51,-127],[-23,-77],[-95,-22],[-67,16],[-23,-13]],[[4472,3181],[-17,-4],[-69,-39],[-8,-51],[-82,2],[-17,93],[45,67],[53,16],[31,-6],[28,54],[26,27]],[[4584,855],[-32,0],[26,217],[38,28],[-32,-245]],[[1869,3814],[-143,-18],[36,102],[-67,114]],[[1695,4012],[11,10],[34,16],[-10,32],[5,25],[-29,64]],[[1706,4159],[-1,18],[-22,45],[-1,5]],[[1682,4227],[-14,64],[3,26],[-5,39],[4,41],[14,51],[65,90]],[[1749,4538],[0,5]],[[1749,4543],[71,-33],[-26,-116],[37,-18],[59,44],[109,-74],[-14,-18],[-17,-17],[40,-27],[83,-48],[48,-9],[71,-4]],[[2210,4223],[46,-42],[137,-46],[128,-92],[86,-22],[97,-73],[104,-31],[106,0]],[[2914,3917],[8,-12],[95,-132],[-68,-16],[20,-36],[-19,-56],[77,-44],[24,-31],[-52,-13],[-72,-23],[-28,-32],[-45,-18],[-27,-108],[24,-47],[-4,-5]],[[2847,3344],[-32,-87]],[[550,3374],[-180,302],[7,81],[-123,39],[14,90],[145,169],[72,-59],[208,39],[145,200],[52,27],[84,188],[106,50]],[[1080,4500],[61,-48],[28,-2],[14,-1]],[[1183,4449],[15,-118],[118,-21],[19,5],[34,-64],[-10,-9],[36,-83],[42,-27],[7,-94],[27,-18],[27,-1],[17,70],[100,9],[23,-116],[57,30]],[[1706,4159],[-32,-24],[-53,20],[10,61],[51,11]],[[1183,4449],[34,7],[90,-27],[20,-58],[78,52],[42,-17],[28,16],[21,6],[47,53],[33,10],[19,57],[30,7],[-15,45]],[[1610,4600],[2,15]],[[1612,4615],[-11,30]],[[1601,4645],[46,-31],[18,-38],[16,-16],[68,-22]],[[3688,3894],[14,81],[94,98],[32,-139],[-13,-57]],[[3627,3493],[-29,15],[-14,-28],[-56,-28],[-23,-88],[-26,-16],[-55,13],[-30,-48],[-74,83],[-28,-3],[-98,-43],[-8,-9],[-45,-29],[-109,-17],[-32,41],[-59,32],[-25,-23],[-69,-1]],[[2914,3917],[141,1],[25,-69],[92,-51],[104,-31],[168,-36],[60,28],[114,-37],[83,34]],[[1600,5124],[-218,194],[-19,7],[-21,26],[-1,5],[-144,72],[-52,10],[-32,63]],[[1113,5501],[-67,87],[-232,80],[110,157],[106,0],[187,80],[118,-5],[295,-259],[125,-64],[298,104],[145,-29],[61,-75],[-48,-154],[-216,-151],[16,-131],[86,-15],[32,-106],[-120,-82],[-108,38]],[[1901,4976],[-122,91],[-86,-20],[-93,77]],[[1600,5124],[-5,-14],[-97,-33],[-78,-27],[6,-77]],[[1426,4973],[-91,-33]],[[1335,4940],[-26,14],[-58,21],[-82,55],[-152,61],[-6,128],[-20,88],[-8,87],[130,107]],[[1601,4645],[-9,7],[-16,56],[-47,41],[-19,-21],[-61,112],[-67,46],[1,2],[61,61],[-18,24]],[[1901,4976],[51,-91],[39,-162]],[[1991,4723],[-106,0],[-89,-52],[-24,-54],[-23,-74]],[[1080,4500],[46,102],[91,78],[-18,87],[56,111],[87,28],[-7,34]],[[1612,4615],[-24,1],[22,-16]],[[1991,4723],[97,-43],[129,-58],[166,-106],[-140,-169],[-31,-102],[-2,-22]]],"transform":{"scale":[0.005394775833748972,0.004900458121728001],"translate":[68.14184033516352,8.139752791196148]},"objects":{"india-states":{"type":"GeometryCollection","geometries":[{"arcs":[[0,1,2,3]],"type":"Polygon","properties":{"name":"Mizoram"}},{"arcs":[[4,5,6,7,8,9,10,11]],"type":"Polygon","properties":{"name":"Tamil Nadu"}},{"arcs":[[12,13,14,15,16]],"type":"Polygon","properties":{"name":"Madhya Pradesh"}},{"arcs":[[-17,17,18,19,20,21,22,23,24]],"type":"Polygon","properties":{"name":"Maharashtra"}},{"arcs":[[-16,25,26,27,28,29,-18]],"type":"Polygon","properties":{"name":"Chhattisgarh"}},{"arcs":[[-13,-25,30,-23,31,32]],"type":"Polygon","properties":{"name":"Gujarat"}},{"arcs":[[-28,33,34,35,36]],"type":"Polygon","properties":{"name":"Odisha"}},{"arcs":[[-11,37,38,-29,-37,39]],"type":"Polygon","properties":{"name":"Andhra Pradesh"}},{"arcs":[[-10,40,41,42,-20,43,-38]],"type":"Polygon","properties":{"name":"Karnataka"}},{"arcs":[[-21,-43,44]],"type":"Polygon","properties":{"name":"Goa"}},{"arcs":[[-9,45,-41]],"type":"Polygon","properties":{"name":"Kerala"}},{"arcs":[[-19,-30,-39,-44]],"type":"Polygon","properties":{"name":"Telangana"}},{"arcs":[[-35,46,47,48,49,50,51,52]],"type":"Polygon","properties":{"name":"West Bengal"}},{"arcs":[[-24,-31]],"type":"Polygon","properties":{"name":"Dadra and Nagar Haveli and Daman and Diu"}},{"arcs":[[[-5,53]],[[-7,54]]],"type":"MultiPolygon","properties":{"name":"Puducherry"}},{"arcs":[[55]],"type":"Polygon","properties":{"name":"Lakshadweep"}},{"arcs":[[56,57,58]],"type":"Polygon","properties":{"name":"Arunachal Pradesh"}},{"arcs":[[-2,59,60,61,62,-52,63,-59,64,65]],"type":"Polygon","properties":{"name":"Assam"}},{"arcs":[[-58,66,67,-65]],"type":"Polygon","properties":{"name":"Nagaland"}},{"arcs":[[-62,68]],"type":"Polygon","properties":{"name":"Meghalaya"}},{"arcs":[[-3,-66,-68,69]],"type":"Polygon","properties":{"name":"Manipur"}},{"arcs":[[-1,70,-60]],"type":"Polygon","properties":{"name":"Tripura"}},{"arcs":[[71]],"type":"Polygon","properties":{"name":"Andaman and Nicobar Islands"}},{"arcs":[[-15,72,73,74,75,76,77,78,79,80,-26]],"type":"Polygon","properties":{"name":"Uttar Pradesh"}},{"arcs":[[-14,-33,81,82,83,-73]],"type":"Polygon","properties":{"name":"Rajasthan"}},{"arcs":[[-75,84]],"type":"Polygon","properties":{"name":"Delhi"}},{"arcs":[[-74,-84,85,86,87,88,-76,-85]],"type":"Polygon","properties":{"name":"Haryana"}},{"arcs":[[-50,89]],"type":"Polygon","properties":{"name":"Sikkim"}},{"arcs":[[-48,90,-80,91]],"type":"Polygon","properties":{"name":"Bihar"}},{"arcs":[[-27,-81,-91,-47,-34]],"type":"Polygon","properties":{"name":"Jharkhand"}},{"arcs":[[92,93,94]],"type":"Polygon","properties":{"name":"Ladakh"}},{"arcs":[[-93,95,96,97]],"type":"Polygon","properties":{"name":"Jammu and Kashmir"}},{"arcs":[[-77,-89,98,-96,-95,99,100]],"type":"Polygon","properties":{"name":"Himachal Pradesh"}},{"arcs":[[-83,101,-97,-99,-88,102,-86]],"type":"Polygon","properties":{"name":"Punjab"}},{"arcs":[[-78,-101,103]],"type":"Polygon","properties":{"name":"Uttarakhand"}},{"arcs":[[-87,-103]],"type":"Polygon","properties":{"name":"Chandigarh"}}]}}}